{
    "links": {
        "self": "http://www.neowsapp.com/rest/v1/neo/3795121?api_key=iIulBulltgU6a56xZRHN4H3l9WmuAYTsLGpBGhQ2"
    },
    "id": "3795121",
    "neo_reference_id": "3795121",
    "name": "(2017 YH7)",
    "designation": "2017 YH7",
    "nasa_jpl_url": "http://ssd.jpl.nasa.gov/sbdb.cgi?sstr=3795121",
    "absolute_magnitude_h": 24.8,
    "estimated_diameter": {
        "kilometers": {
            "estimated_diameter_min": 0.0291443905,
            "estimated_diameter_max": 0.0651688382
        },
        "meters": {
            "estimated_diameter_min": 29.1443904535,
            "estimated_diameter_max": 65.1688382168
        },
        "miles": {
            "estimated_diameter_min": 0.018109479,
            "estimated_diameter_max": 0.0404940262
        },
        "feet": {
            "estimated_diameter_min": 95.6180819754,
            "estimated_diameter_max": 213.8085311752
        }
    },
    "is_potentially_hazardous_asteroid": false,
    "close_approach_data": [
        {
            "close_approach_date": "1901-01-16",
            "close_approach_date_full": "1901-Jan-16 00:25",
            "epoch_date_close_approach": -2176155300000,
            "relative_velocity": {
                "kilometers_per_second": "24.6532880318",
                "kilometers_per_hour": "88751.8369143011",
                "miles_per_hour": "55146.9399982222"
            },
            "miss_distance": {
                "astronomical": "0.3304655351",
                "lunar": "128.5510931539",
                "kilometers": "49436940.159370237",
                "miles": "30718690.1704417906"
            },
            "orbiting_body": "Earth"
        },
        {
            "close_approach_date": "2017-12-24",
            "close_approach_date_full": "2017-Dec-24 07:19",
            "epoch_date_close_approach": 1514099940000,
            "relative_velocity": {
                "kilometers_per_second": "13.8227949998",
                "kilometers_per_hour": "49762.0619993862",
                "miles_per_hour": "30920.2101351186"
            },
            "miss_distance": {
                "astronomical": "0.0420589009",
                "lunar": "16.3609124501",
                "kilometers": "6291921.989181083",
                "miles": "3909619.0326336254"
            },
            "orbiting_body": "Earth"
        }
    ],
    "orbital_data": {
        "orbit_id": "1",
        "orbit_determination_date": "2017-12-30 11:45:01",
        "first_observation_date": "2017-12-28",
        "last_observation_date": "2017-12-30",
        "data_arc_in_days": 2,
        "observations_used": 19,
        "orbit_uncertainty": "9",
        "minimum_orbit_intersection": ".0166492",
        "jupiter_tisserand_invariant": "3.256",
        "epoch_osculation": "2458116.5",
        "eccentricity": ".6510161681937575",
        "semi_major_axis": "2.320085135564034",
        "inclination": "2.175366302287463",
        "ascending_node_longitude": "313.7499653336696",
        "orbital_period": "1290.786187114572",
        "perihelion_distance": ".809672200725842",
        "perihelion_argument": "85.8630294539152",
        "aphelion_distance": "3.830498070402225",
        "perihelion_time": "2458076.081301369488",
        "mean_anomaly": "11.272766669057",
        "mean_motion": ".2788997926951367",
        "equinox": "J2000",
        "orbit_class": {
            "orbit_class_type": "APO",
            "orbit_class_description": "Near-Earth asteroid orbits which cross the Earth’s orbit similar to that of 1862 Apollo",
            "orbit_class_range": "a (semi-major axis) > 1.0 AU; q (perihelion) < 1.017 AU"
        }
    },
    "is_sentry_object": false
}